#dP2020  5 30 12  0  0.00000000      96 __u+U ITR00 FIT  IAC
## 2107 561600.00000000   900.00000000 58999 0.5000000000000
+  117   C06C07C08C09C10C11C12C13C14C16C19C20C21C22C23C24C25
+        C26C27C28C29C30C32C33C34C35C36C37C38C39C40C43C44C45
+        C46E01E02E03E04E05E07E08E09E11E12E13E14E15E18E19E21
+        E24E25E26E27E30E31E33E36G01G02G03G04G05G06G07G08G09
+        G10G11G12G13G14G15G16G17G18G19G20G21G22G23G24G25G26
+        G27G28G29G30G31G32J01J02J03R01R02R03R04R05R07R08R09
+        R11R12R13R14R15R16R17R18R19R20R21R22R23R24R26  0  0
++        12 11  8  9 11  8  7  7  8 11  6  7  8  7  7  8  7
++         8  8  8  9  8  7  8  6  7  8  7 13 12 12  5  9  7
++        10  7  8  7  6  7  6  7  6  6  8  6  7  6  8  8  6
++         8  8  7  7  7  7  5  6  7  6  8  6  7  6  7  7  6
++         7  7  7  7  6  8  8  8  8  7  7  7  7  7  6  0  5
++         6  8  7  8  7  8  9 13 11  8  7  7  6  5  6  8  8
++         7  6  8  9  9  7  9  5  7  7  8  7  8  7  6  0  0
%c M  cc GPS ccc cccc cccc cccc cccc ccccc ccccc ccccc ccccc
%c cc cc ccc ccc cccc cccc cccc cccc ccccc ccccc ccccc ccccc
%f  0.0000000  0.000000000  0.00000000000  0.000000000000000
%f  0.0000000  0.000000000  0.00000000000  0.000000000000000
%i    0    0    0    0      0      0      0      0         0
%i    0    0    0    0      0      0      0      0         0
/* INFORMATION & ANALYSIS CENTER (IAC)      ULTRA-RAPID DATA
/* S/V CLOCKS ARE ALIGNED TO GNSS TIME                      
/* G:C1WC2W R:C1PC2P E:C1XC5X C:C2IC6I J:C1CC2S             
/* PCV:IGS14_2101 OL/AL:FES2004  NONE     YN ORB:CoN CLK:CoN
*  2020 05 30 20  0  0.00000000
PC06 -21206.796282  22843.974834  28604.189059 999999.999999
PC07 -18323.757998  37906.176440   5538.666298 999999.999999
PC08  -5697.228693  25201.927542 -33146.508982 999999.999999
PC09  -2364.300445  24735.878205  34318.939957 999999.999999
PC10  -7224.603093  40863.245793  -8513.700802 999999.999999
PC11   -447.095063 -15535.237540  23233.786914 999999.999999
PC12  19376.332863  -8943.507909  17996.293131 999999.999999
PC13   6588.369454  33791.898467 -24087.391311 999999.999999
PC14   7144.239234 -23656.503165 -12870.644331 999999.999999
PC16 -18183.771453  23226.437054  30137.132902 999999.999999
PC19   1305.150471  20128.441664  19325.871265 999999.999999
PC20 -13821.815095  23669.867866   5362.199438 999999.999999
PC21  21294.030371 -13120.341719  12372.923315 999999.999999
PC22  15981.988969   4868.389972  22358.037734 999999.999999
PC23 -17556.427108 -15345.476290  15331.311025 999999.999999
PC24   4691.267370 -21598.611926 -17050.425282 999999.999999
PC25 -10120.697369 -26002.191579   -829.468416 999999.999999
PC26  15186.781295  -5495.873660 -22760.316054 999999.999999
PC27 -25577.871529   3204.378515 -10681.625180 999999.999999
PC28 -25470.825732  -9088.711476   6894.891802 999999.999999
PC29  11057.768262  15607.946557 -20329.585763 999999.999999
PC30 -10545.342859  13862.948909 -21802.464954 999999.999999
PC32 -21196.223884  13355.185372 -12287.066672 999999.999999
PC33  -1368.966617 -20139.755023 -19245.366327 999999.999999
PC34  10130.933587 -14015.843650  21897.645687 999999.999999
PC35  25702.110860   8340.277404  -7049.365802 999999.999999
PC36   9343.296087  26279.500475   1086.435424 999999.999999
PC37 -15589.888246   4378.434623  22747.070579 999999.999999
PC38  -2495.202742  29974.500121 -29489.051838 999999.999999
PC39 -13867.264851  24685.424424  31207.173292 999999.999999
PC40 -14887.281599  39182.195026  -5389.040015 999999.999999
PC43 -10616.875964 -15814.261026  20379.623741 999999.999999
PC44  25593.559967  -3932.279973  10444.048271 999999.999999
PC45  17524.262448  15335.984281 -15361.487665 999999.999999
PC46  -4200.200807  21872.812271  16807.182289 999999.999999
PE01  -8273.730271 -24294.448649  14744.197813 999999.999999
PE02   8329.908087  24227.995978 -14821.076947 999999.999999
PE03  10772.442324  13650.417750  23959.699798 999999.999999
PE04 -25505.516879    766.283729 -14993.145461 999999.999999
PE05 -10433.866282  20206.467218  18959.521573 999999.999999
PE07  25398.719715 -14904.579783  -2907.971178 999999.999999
PE08  25535.958890  -1155.288914  14920.956240 999999.999999
PE09 -25271.972474  15129.734246   3044.483118 999999.999999
PE11 -18075.382348   6033.645519 -22652.299543 999999.999999
PE12 -26337.227053 -10416.138706  -8565.006159 999999.999999
PE13  18223.960926  -5825.755553  22591.060722 999999.999999
PE14 -25515.772958  12172.582547 -10587.393622 999999.999999
PE15  26377.259437  10187.319863   8773.088601 999999.999999
PE18  26775.245274  -1739.819751  -1656.025022 999999.999999
PE19  -8587.363494 -14695.307288 -24205.964379 999999.999999
PE21   3987.069078 -29146.760383  -3262.080196 999999.999999
PE24 -14377.156592  16709.944661  19733.942123 999999.999999
PE25  -4069.969361  29125.091172   3388.460400 999999.999999
PE26   -871.234160 -18736.559925  22899.679323 999999.999999
PE27  14174.462708 -17029.392972 -19627.125072 999999.999999
PE30  15960.475218   5517.690143 -24319.238538 999999.999999
PE31 -15995.395941  -5028.986928  24397.343868 999999.999999
PE33 -19031.950212 -20230.416279  10218.816954 999999.999999
PE36    644.624881  18433.744113 -23150.567159 999999.999999
PG01  20639.983451  13043.048025  10636.362954 999999.999999
PG02 -11750.843770 -21830.824025  10236.791698 999999.999999
PG03  14673.554754   3638.148568  21772.607550 999999.999999
PG04  25490.379869   1110.006836   7450.305451 999999.999999
PG05  -4095.824164 -21861.025602 -14504.472470 999999.999999
PG06  -1439.742482 -19721.730951  17760.871560 999999.999999
PG07  15905.733691  -3982.717954 -20677.830327 999999.999999
PG08  18960.356720   7868.355081 -16982.050731 999999.999999
PG09  25125.664159  -7918.709223  -3507.758309 999999.999999
PG10 -11578.756156  23185.972202  -5120.199999 999999.999999
PG11  22877.551368  12661.804917  -4063.685116 999999.999999
PG12 -13836.565797  -5063.387390  21859.292963 999999.999999
PG13 -11067.911967 -13274.054263 -20311.378310 999999.999999
PG14  -4779.567973  15558.143425  21306.729719 999999.999999
PG15 -20276.918745  -6574.676022 -16387.179713 999999.999999
PG16   3037.160925  20546.997918 -16507.244893 999999.999999
PG17  14597.746198 -13899.136402  17693.700168 999999.999999
PG18 -15719.498357   3952.272599 -21054.535654 999999.999999
PG19   6896.391946 -14579.876783  20796.583310 999999.999999
PG20 -14815.640353  15527.962422 -15583.043257 999999.999999
PG21 -10887.469925  10359.740153 -21162.658779 999999.999999
PG22  12097.218990  13045.943719  19974.963014 999999.999999
PG23  23503.577834 -10465.430167  -7043.238114 999999.999999
PG24 -21662.919036 -13090.918993   8441.338104 999999.999999
PG25 -16422.403666   5887.424432  19705.624842 999999.999999
PG26  -3809.922546  25637.337822  -5265.032748 999999.999999
PG27   8316.823233  13230.726992 -21665.570647 999999.999999
PG28  12440.440823 -23325.273835  -2690.237739 999999.999999
PG29 -26340.836236   3504.602105   -267.275345 999999.999999
PG30   7723.572285 -14560.352121 -20748.054588 999999.999999
PG31   1960.308264  20511.189188  16458.261187 999999.999999
PG32 -13055.248764  15220.190830  17427.601920 999999.999999
PJ01 -28089.971767  31422.137855   2161.078093 999999.999999
PJ02 -25996.121888  25704.777002  25926.658606 999999.999999
PJ03 -32290.752893  17142.341061 -16307.340886 999999.999999
PR01 -13004.440557  -2464.887540 -21800.693572 999999.999999
PR02 -20548.220688  13407.962395  -6829.961185 999999.999999
PR03 -13789.149340  18660.271785  10593.034419 999999.999999
PR04    581.293787  13129.963032  21893.545667 999999.999999
PR05  14696.501932    252.528380  20868.671526 999999.999999
PR07  13520.160600 -18637.953706 -10977.661311 999999.999999
PR08   -590.316830 -13207.692880 -21757.697068 999999.999999
PR09   8373.679538 -11252.959438 -21274.999554 999999.999999
PR11  -7427.121893 -23755.501691   5477.555198 999999.999999
PR12 -11664.637143 -12063.757836  19243.893035 999999.999999
PR13  -9437.690273   7236.291420  22549.619162 999999.999999
PR14  -1763.618127  22190.911508  12481.814185 999999.999999
PR15   6883.557928  24129.061225  -4579.375297 999999.999999
PR16  12067.386832  11112.429659 -19511.511705 999999.999999
PR17  -5788.899727   9129.217165 -23101.863976 999999.999999
PR18  11941.142319  13024.191387 -18413.140942 999999.999999
PR19  22744.133662  10707.845000  -4331.713572 999999.999999
PR20  20866.364623    969.863424  14676.262731 999999.999999
PR21   4735.621117  -9445.528010  23211.698711 999999.999999
PR22 -14016.588599 -13031.153521  16794.899111 999999.999999
PR23 -24257.659410  -7425.313302  -2657.443372 999999.999999
PR24 -20556.611657   -115.523016 -15096.016797 999999.999999
PR26  22971.904418   3154.633548  10609.472886 999999.999999
EOF
